[{"OBJECT_NAME":"STARLINK-3812","OBJECT_ID":"2022-045R","EPOCH":"2026-03-09T15:24:32.946336","MEAN_MOTION":15.08835897,"ECCENTRICITY":0.00013,"INCLINATION":53.2167,"RA_OF_ASC_NODE":199.3431,"ARG_OF_PERICENTER":114.3782,"MEAN_ANOMALY":245.7345,"EPHEMERIS_TYPE":0,"CLASSIFICATION_TYPE":"U","NORAD_CAT_ID":52346,"ELEMENT_SET_NO":999,"REV_AT_EPOCH":21577,"BSTAR":1.3789e-5,"MEAN_MOTION_DOT":-6.8e-7,"MEAN_MOTION_DDOT":0},{"OBJECT_NAME":"STARLINK-6085","OBJECT_ID":"2023-090Q","EPOCH":"2026-03-09T12:53:56.600160","MEAN_MOTION":15.13089153,"ECCENTRICITY":0.00193829,"INCLINATION":42.9983,"RA_OF_ASC_NODE":264.1938,"ARG_OF_PERICENTER":205.4773,"MEAN_ANOMALY":154.5119,"EPHEMERIS_TYPE":0,"CLASSIFICATION_TYPE":"U","NORAD_CAT_ID":57115,"ELEMENT_SET_NO":999,"REV_AT_EPOCH":15052,"BSTAR":0.0015301514,"MEAN_MOTION_DOT":0.00027564,"MEAN_MOTION_DDOT":0}]
