STARLINK-3812           
1 52346U 22045R   26068.64204799 -.00000068  00000+0  13789-4 0  9992
2 52346  53.2167 199.3431 0001300 114.3782 245.7345 15.08835897215772
STARLINK-6085           
1 57115U 23090Q   26068.53746065  .00027564  00000+0  15302-2 0  9997
2 57115  42.9983 264.1938 0019382 205.4773 154.5119 15.13089153150525
